[{"OBJECT_NAME":"ONEWEB-0704","OBJECT_ID":"2024-188R","EPOCH":"2025-08-03T04:38:10.129056","MEAN_MOTION":13.1037517,"ECCENTRICITY":0.0001351,"INCLINATION":87.8825,"RA_OF_ASC_NODE":99.626,"ARG_OF_PERICENTER":44.1569,"MEAN_ANOMALY":315.9666,"EPHEMERIS_TYPE":0,"CLASSIFICATION_TYPE":"U","NORAD_CAT_ID":61609,"ELEMENT_SET_NO":999,"REV_AT_EPOCH":4164,"BSTAR":0.00061425,"MEAN_MOTION_DOT":2.27e-6,"MEAN_MOTION_DDOT":0},{"OBJECT_NAME":"ONEWEB-0705","OBJECT_ID":"2024-188S","EPOCH":"2025-08-03T04:45:20.344032","MEAN_MOTION":13.10376196,"ECCENTRICITY":5.89e-5,"INCLINATION":87.8792,"RA_OF_ASC_NODE":99.6673,"ARG_OF_PERICENTER":98.229,"MEAN_ANOMALY":261.8904,"EPHEMERIS_TYPE":0,"CLASSIFICATION_TYPE":"U","NORAD_CAT_ID":61610,"ELEMENT_SET_NO":999,"REV_AT_EPOCH":3381,"BSTAR":0.0017115,"MEAN_MOTION_DOT":6.1e-6,"MEAN_MOTION_DDOT":0},{"OBJECT_NAME":"ONEWEB-0706","OBJECT_ID":"2024-188T","EPOCH":"2025-08-03T04:23:44.140128","MEAN_MOTION":13.10374492,"ECCENTRICITY":0.0001446,"INCLINATION":87.8807,"RA_OF_ASC_NODE":99.697,"ARG_OF_PERICENTER":69.2695,"MEAN_ANOMALY":290.8587,"EPHEMERIS_TYPE":0,"CLASSIFICATION_TYPE":"U","NORAD_CAT_ID":61611,"ELEMENT_SET_NO":999,"REV_AT_EPOCH":4173,"BSTAR":-0.0015336,"MEAN_MOTION_DOT":-5.23e-6,"MEAN_MOTION_DDOT":0},{"OBJECT_NAME":"ONEWEB-0707","OBJECT_ID":"2024-188U","EPOCH":"2025-08-03T04:33:24.081120","MEAN_MOTION":13.10378515,"ECCENTRICITY":0.0001344,"INCLINATION":87.88,"RA_OF_ASC_NODE":99.6618,"ARG_OF_PERICENTER":62.571,"MEAN_ANOMALY":297.5554,"EPHEMERIS_TYPE":0,"CLASSIFICATION_TYPE":"U","NORAD_CAT_ID":61612,"ELEMENT_SET_NO":999,"REV_AT_EPOCH":4167,"BSTAR":0.00023524,"MEAN_MOTION_DOT":9.5e-7,"MEAN_MOTION_DDOT":0},{"OBJECT_NAME":"ONEWEB-0708","OBJECT_ID":"2024-188V","EPOCH":"2025-08-03T04:59:41.566272","MEAN_MOTION":13.10371996,"ECCENTRICITY":9.5e-5,"INCLINATION":87.8833,"RA_OF_ASC_NODE":99.6894,"ARG_OF_PERICENTER":79.2856,"MEAN_ANOMALY":280.8379,"EPHEMERIS_TYPE":0,"CLASSIFICATION_TYPE":"U","NORAD_CAT_ID":61613,"ELEMENT_SET_NO":999,"REV_AT_EPOCH":4165,"BSTAR":0.0017134,"MEAN_MOTION_DOT":6.11e-6,"MEAN_MOTION_DDOT":0}]
