ONEWEB-0704             
1 61609U 24188R   25215.19317279  .00000227  00000+0  61425-3 0  9990
2 61609  87.8825  99.6260 0001351  44.1569 315.9666 13.10375170 41642
ONEWEB-0705             
1 61610U 24188S   25215.19815213  .00000610  00000+0  17115-2 0  9995
2 61610  87.8792  99.6673 0000589  98.2290 261.8904 13.10376196 33811
ONEWEB-0706             
1 61611U 24188T   25215.18314977 -.00000523  00000+0 -15336-2 0  9994
2 61611  87.8807  99.6970 0001446  69.2695 290.8587 13.10374492 41735
ONEWEB-0707             
1 61612U 24188U   25215.18986205  .00000095  00000+0  23524-3 0  9995
2 61612  87.8800  99.6618 0001344  62.5710 297.5554 13.10378515 41670
ONEWEB-0708             
1 61613U 24188V   25215.20811998  .00000611  00000+0  17134-2 0  9998
2 61613  87.8833  99.6894 0000950  79.2856 280.8379 13.10371996 41655
